[{"OBJECT_NAME":"STARLINK-35253","OBJECT_ID":"2025-207E","EPOCH":"2026-03-09T17:20:40.173216","MEAN_MOTION":15.05646937,"ECCENTRICITY":8.177e-5,"INCLINATION":97.6021,"RA_OF_ASC_NODE":138.6522,"ARG_OF_PERICENTER":118.2421,"MEAN_ANOMALY":241.8889,"EPHEMERIS_TYPE":0,"CLASSIFICATION_TYPE":"U","NORAD_CAT_ID":65596,"ELEMENT_SET_NO":999,"REV_AT_EPOCH":2805,"BSTAR":0.0001116541,"MEAN_MOTION_DOT":1.551e-5,"MEAN_MOTION_DDOT":0},{"OBJECT_NAME":"CZ-2D DEB","OBJECT_ID":"2017-060C","EPOCH":"2026-03-09T12:36:22.356864","MEAN_MOTION":15.07716497,"ECCENTRICITY":0.0018685,"INCLINATION":98.2453,"RA_OF_ASC_NODE":267.9231,"ARG_OF_PERICENTER":71.2095,"MEAN_ANOMALY":289.1156,"EPHEMERIS_TYPE":0,"CLASSIFICATION_TYPE":"U","NORAD_CAT_ID":44610,"ELEMENT_SET_NO":999,"REV_AT_EPOCH":45422,"BSTAR":0.00057216024,"MEAN_MOTION_DOT":8.702e-5,"MEAN_MOTION_DDOT":0}]
